{
    "links": {
        "self": "http://www.neowsapp.com/rest/v1/neo/3831856?api_key=iIulBulltgU6a56xZRHN4H3l9WmuAYTsLGpBGhQ2"
    },
    "id": "3831856",
    "neo_reference_id": "3831856",
    "name": "(2018 TZ5)",
    "designation": "2018 TZ5",
    "nasa_jpl_url": "http://ssd.jpl.nasa.gov/sbdb.cgi?sstr=3831856",
    "absolute_magnitude_h": 24.4,
    "estimated_diameter": {
        "kilometers": {
            "estimated_diameter_min": 0.0350392641,
            "estimated_diameter_max": 0.0783501764
        },
        "meters": {
            "estimated_diameter_min": 35.0392641108,
            "estimated_diameter_max": 78.3501764334
        },
        "miles": {
            "estimated_diameter_min": 0.0217723826,
            "estimated_diameter_max": 0.0486845275
        },
        "feet": {
            "estimated_diameter_min": 114.9582192654,
            "estimated_diameter_max": 257.0543928497
        }
    },
    "is_potentially_hazardous_asteroid": false,
    "close_approach_data": [
        {
            "close_approach_date": "1951-07-01",
            "close_approach_date_full": "1951-Jul-01 21:08",
            "epoch_date_close_approach": -583901520000,
            "relative_velocity": {
                "kilometers_per_second": "11.9569596176",
                "kilometers_per_hour": "43045.0546235292",
                "miles_per_hour": "26746.5229687146"
            },
            "miss_distance": {
                "astronomical": "0.0151578458",
                "lunar": "5.8964020162",
                "kilometers": "2267581.445468446",
                "miles": "1409009.7735627148"
            },
            "orbiting_body": "Earth"
        },
        {
            "close_approach_date": "2018-10-10",
            "close_approach_date_full": "2018-Oct-10 13:46",
            "epoch_date_close_approach": 1539179160000,
            "relative_velocity": {
                "kilometers_per_second": "12.0569713763",
                "kilometers_per_hour": "43405.09695455",
                "miles_per_hour": "26970.2392715647"
            },
            "miss_distance": {
                "astronomical": "0.0219249595",
                "lunar": "8.5288092455",
                "kilometers": "3279927.241036265",
                "miles": "2038052.281839857"
            },
            "orbiting_body": "Earth"
        },
        {
            "close_approach_date": "2046-06-07",
            "close_approach_date_full": "2046-Jun-07 21:57",
            "epoch_date_close_approach": 2412021420000,
            "relative_velocity": {
                "kilometers_per_second": "10.2324436419",
                "kilometers_per_hour": "36836.7971110132",
                "miles_per_hour": "22888.9531826737"
            },
            "miss_distance": {
                "astronomical": "0.0896833603",
                "lunar": "34.8868271567",
                "kilometers": "13416439.675322561",
                "miles": "8336589.0414749018"
            },
            "orbiting_body": "Mars"
        },
        {
            "close_approach_date": "2046-10-31",
            "close_approach_date_full": "2046-Oct-31 10:53",
            "epoch_date_close_approach": 2424595980000,
            "relative_velocity": {
                "kilometers_per_second": "20.5039258294",
                "kilometers_per_hour": "73814.1329858101",
                "miles_per_hour": "45865.2316877663"
            },
            "miss_distance": {
                "astronomical": "0.294610451",
                "lunar": "114.603465439",
                "kilometers": "44073095.94933937",
                "miles": "27385751.928728506"
            },
            "orbiting_body": "Earth"
        },
        {
            "close_approach_date": "2049-06-03",
            "close_approach_date_full": "2049-Jun-03 01:52",
            "epoch_date_close_approach": 2506297920000,
            "relative_velocity": {
                "kilometers_per_second": "24.5724302345",
                "kilometers_per_hour": "88460.7488443703",
                "miles_per_hour": "54966.0691916589"
            },
            "miss_distance": {
                "astronomical": "0.438885531",
                "lunar": "170.726471559",
                "kilometers": "65656340.61141897",
                "miles": "40796958.275842986"
            },
            "orbiting_body": "Earth"
        }
    ],
    "orbital_data": {
        "orbit_id": "12",
        "orbit_determination_date": "2018-11-24 06:42:45",
        "first_observation_date": "2018-10-14",
        "last_observation_date": "2018-11-15",
        "data_arc_in_days": 32,
        "observations_used": 71,
        "orbit_uncertainty": "7",
        "minimum_orbit_intersection": ".0108598",
        "jupiter_tisserand_invariant": "3.650",
        "epoch_osculation": "2459000.5",
        "eccentricity": ".5507983183392555",
        "semi_major_axis": "1.986911315831089",
        "inclination": "1.165628005681217",
        "ascending_node_longitude": "132.9690960878878",
        "orbital_period": "1022.977664735861",
        "perihelion_distance": ".8925239043820878",
        "perihelion_argument": "197.0696373189958",
        "aphelion_distance": "3.08129872728009",
        "perihelion_time": "2459390.739523264371",
        "mean_anomaly": "222.6693101736021",
        "mean_motion": ".3519138417288457",
        "equinox": "J2000",
        "orbit_class": {
            "orbit_class_type": "APO",
            "orbit_class_description": "Near-Earth asteroid orbits which cross the Earth’s orbit similar to that of 1862 Apollo",
            "orbit_class_range": "a (semi-major axis) > 1.0 AU; q (perihelion) < 1.017 AU"
        }
    },
    "is_sentry_object": false
}